STARLINK-36417          
1 67533U 26014B   26197.65002310  .00007808  00000+0  24407-3 0  9991
2 67533  97.2858  83.9014 0002601  72.4779 287.6748 15.33425051 28545
STARLINK-36576          
1 67534U 26014C   26197.63913823  .00013096  00000+0  40712-3 0  9993
2 67534  97.2846  83.9176 0002016  86.7698 273.3776 15.33454729 28547
STARLINK-36574          
1 67535U 26014D   26197.62010382  .00014856  00000+0  46139-3 0  9995
2 67535  97.2850  83.9415 0002220  80.3864 279.7629 15.33456837 28540
STARLINK-36572          
1 67536U 26014E   26197.64185671  .00010132  00000+0  31567-3 0  9994
2 67536  97.2847  83.9121 0001922  94.2716 265.8747 15.33451249 28548
STARLINK-36561          
1 67537U 26014F   26197.63369999  .00011580  00000+0  36043-3 0  9993
2 67537  97.2850  83.9210 0001560  89.9854 270.1567 15.33446470 28543
STARLINK-36397          
1 67538U 26014G   26197.68264016  .00010977  00000+0  34185-3 0  9997
2 67538  97.2847  84.0068 0001803  88.3628 271.7821 15.33444308 28554
STARLINK-36573          
1 67539U 26014H   26197.63098341  .00011700  00000+0  36387-3 0  9990
2 67539  97.2848  83.9284 0001603  96.6537 263.4888 15.33472305 28541
STARLINK-36585          
1 67540U 26014J   26197.62554005  .00008202  00000+0  25601-3 0  9995
2 67540  97.2845  83.9323 0002170  98.0112 262.1377 15.33454806 28544
STARLINK-36579          
1 67541U 26014K   26197.65815492  .00015692  00000+0  48687-3 0  9999
2 67541  97.2843  84.0425 0001607 130.4541 229.6842 15.33478639 28555
STARLINK-35934          
1 67542U 26014L   26197.66362596  .00018578  00000+0  57605-3 0  9999
2 67542  97.2844  84.0367 0001951  93.9455 266.2011 15.33461351 28548
STARLINK-36581          
1 67543U 26014M   26197.62825878  .00011712  00000+0  36436-3 0  9995
2 67543  97.2845  83.9317 0002101  95.1773 264.9710 15.33460445 28542
STARLINK-36565          
1 67544U 26014N   26197.63641794  .00006441  00000+0  20157-3 0  9996
2 67544  97.2849  83.9210 0002193  83.9076 276.2417 15.33458182 28546
STARLINK-36583          
1 67545U 26014P   26197.67448280  .00008466  00000+0  26430-3 0  9995
2 67545  97.2848  84.0206 0001781  91.0206 269.1241 15.33441360 28557
STARLINK-36580          
1 67546U 26014Q   26197.64457443  .00014258  00000+0  44298-3 0  9992
2 67546  97.2840  83.9096 0002466 108.8586 251.2925 15.33453465 28543
STARLINK-36584          
1 67547U 26014R   26197.66904588  .00011139  00000+0  34677-3 0  9997
2 67547  97.2849  84.0312 0002336  95.5886 264.5623 15.33450277 28558
STARLINK-36586          
1 67548U 26014S   26197.66631966  .00009451  00000+0  29446-3 0  9997
2 67548  97.2845  84.0348 0001877  90.9020 269.2438 15.33470518 28558
STARLINK-36564          
1 67549U 26014T   26197.64729448  .00010585  00000+0  32967-3 0  9991
2 67549  97.2845  83.9057 0002054 100.3941 259.7533 15.33449739 28483
STARLINK-36563          
1 67550U 26014U   26197.66088457  .00024212  00000+0  74925-3 0  9995
2 67550  97.2818  84.0372 0003069 115.7310 244.4250 15.33468323 28559
STARLINK-36566          
1 67551U 26014V   26197.65273450  .00010876  00000+0  33860-3 0  9998
2 67551  97.2844  83.8982 0002334  79.8341 280.3164 15.33454402 28535
STARLINK-36567          
1 67552U 26014W   26197.67176373  .00010797  00000+0  33620-3 0  9993
2 67552  97.2844  84.0224 0002117  94.1199 266.0286 15.33451663 28541
STARLINK-36569          
1 67553U 26014X   26197.67991454  .00018184  00000+0  56376-3 0  9990
2 67553  97.2836  84.0139 0001161  87.1330 273.0046 15.33470858 28544
STARLINK-36395          
1 67554U 26014Y   26197.75834272  .00010611  00000+0  33040-3 0  9994
2 67554  97.2836  86.9590 0002400 113.6898 246.4596 15.33458237 28741
STARLINK-36559          
1 67555U 26014Z   26197.62282308  .00015058  00000+0  46772-3 0  9994
2 67555  97.2847  83.9394 0001781  93.2652 266.8794 15.33451629 28536
STARLINK-36426          
1 67560U 26014AA  26197.65544853  .00012206  00000+0  37963-3 0  9993
2 67560  97.2851  84.0470 0002043  87.7509 272.3967 15.33459054 28540
STARLINK-36621          
1 67561U 26016A   26197.64694147  .00012127  00000+0  37750-3 0  9993
2 67561  97.2843 257.1767 0000765 267.4917  92.6238 15.33433715 26620
STARLINK-36398          
1 67562U 26016B   26197.65509715  .00030792  00000+0  95135-3 0  9990
2 67562  97.2827 257.3170 0001063 135.6961 224.4367 15.33474647 26638
STARLINK-36403          
1 67563U 26016C   26197.67414439  .00009428  00000+0  29407-3 0  9992
2 67563  97.2848 257.2923 0000841 134.4427 225.6884 15.33438371 26635
STARLINK-36593          
1 67564U 26016D   26197.61432475  .00008882  00000+0  27712-3 0  9997
2 67564  97.2842 257.2188 0000773 105.4088 254.7240 15.33445408 26625
STARLINK-35725          
1 67565U 26016E   26197.63335300  .00014486  00000+0  44998-3 0  9991
2 67565  97.2864 257.1977 0001189 285.6860  74.4251 15.33457942 26621
STARLINK-36394          
1 67566U 26016F   26197.63607209  .00009359  00000+0  29176-3 0  9996
2 67566  97.2841 257.1916 0000877 243.9355 116.1797 15.33454711 26629
