OBJECT_NAME,OBJECT_ID,EPOCH,MEAN_MOTION,ECCENTRICITY,INCLINATION,RA_OF_ASC_NODE,ARG_OF_PERICENTER,MEAN_ANOMALY,EPHEMERIS_TYPE,CLASSIFICATION_TYPE,NORAD_CAT_ID,ELEMENT_SET_NO,REV_AT_EPOCH,BSTAR,MEAN_MOTION_DOT,MEAN_MOTION_DDOT
STARLINK-36417,2026-014B,2026-07-16T15:36:01.995840,15.33425051,.0002601,97.2858,83.9014,72.4779,287.6748,0,U,67533,999,2854,.24407E-3,.7808E-4,0
STARLINK-36576,2026-014C,2026-07-16T15:20:21.543072,15.33454729,.0002016,97.2846,83.9176,86.7698,273.3776,0,U,67534,999,2854,.40712E-3,.13096E-3,0
STARLINK-36574,2026-014D,2026-07-16T14:52:56.970048,15.33456837,.000222,97.2850,83.9415,80.3864,279.7629,0,U,67535,999,2854,.46139E-3,.14856E-3,0
STARLINK-36572,2026-014E,2026-07-16T15:24:16.419744,15.33451249,.0001922,97.2847,83.9121,94.2716,265.8747,0,U,67536,999,2854,.31567E-3,.10132E-3,0
STARLINK-36561,2026-014F,2026-07-16T15:12:31.679136,15.33446470,.000156,97.2850,83.9210,89.9854,270.1567,0,U,67537,999,2854,.36043E-3,.1158E-3,0
STARLINK-36397,2026-014G,2026-07-16T16:23:00.109824,15.33444308,.0001803,97.2847,84.0068,88.3628,271.7821,0,U,67538,999,2855,.34185E-3,.10977E-3,0
STARLINK-36573,2026-014H,2026-07-16T15:08:36.966624,15.33472305,.0001603,97.2848,83.9284,96.6537,263.4888,0,U,67539,999,2854,.36387E-3,.117E-3,0
STARLINK-36585,2026-014J,2026-07-16T15:00:46.660320,15.33454806,.000217,97.2845,83.9323,98.0112,262.1377,0,U,67540,999,2854,.25601E-3,.8202E-4,0
STARLINK-36579,2026-014K,2026-07-16T15:47:44.585088,15.33478639,.0001607,97.2843,84.0425,130.4541,229.6842,0,U,67541,999,2855,.48687E-3,.15692E-3,0
STARLINK-35934,2026-014L,2026-07-16T15:55:37.282944,15.33461351,.0001951,97.2844,84.0367,93.9455,266.2011,0,U,67542,999,2854,.57605E-3,.18578E-3,0
STARLINK-36581,2026-014M,2026-07-16T15:04:41.558592,15.33460445,.0002101,97.2845,83.9317,95.1773,264.9710,0,U,67543,999,2854,.36436E-3,.11712E-3,0
STARLINK-36565,2026-014N,2026-07-16T15:16:26.510016,15.33458182,.0002193,97.2849,83.9210,83.9076,276.2417,0,U,67544,999,2854,.20157E-3,.6441E-4,0
STARLINK-36583,2026-014P,2026-07-16T16:11:15.313920,15.33441360,.0001781,97.2848,84.0206,91.0206,269.1241,0,U,67545,999,2855,.2643E-3,.8466E-4,0
STARLINK-36580,2026-014Q,2026-07-16T15:28:11.230752,15.33453465,.0002466,97.2840,83.9096,108.8586,251.2925,0,U,67546,999,2854,.44298E-3,.14258E-3,0
STARLINK-36584,2026-014R,2026-07-16T16:03:25.564032,15.33450277,.0002336,97.2849,84.0312,95.5886,264.5623,0,U,67547,999,2855,.34677E-3,.11139E-3,0
STARLINK-36586,2026-014S,2026-07-16T15:59:30.018624,15.33470518,.0001877,97.2845,84.0348,90.9020,269.2438,0,U,67548,999,2855,.29446E-3,.9451E-4,0
STARLINK-36564,2026-014T,2026-07-16T15:32:06.243072,15.33449739,.0002054,97.2845,83.9057,100.3941,259.7533,0,U,67549,999,2848,.32967E-3,.10585E-3,0
STARLINK-36563,2026-014U,2026-07-16T15:51:40.426848,15.33468323,.0003069,97.2818,84.0372,115.7310,244.4250,0,U,67550,999,2855,.74925E-3,.24212E-3,0
STARLINK-36566,2026-014V,2026-07-16T15:39:56.260800,15.33454402,.0002334,97.2844,83.8982,79.8341,280.3164,0,U,67551,999,2853,.3386E-3,.10876E-3,0
STARLINK-36567,2026-014W,2026-07-16T16:07:20.386272,15.33451663,.0002117,97.2844,84.0224,94.1199,266.0286,0,U,67552,999,2854,.3362E-3,.10797E-3,0
STARLINK-36569,2026-014X,2026-07-16T16:19:04.616256,15.33470858,.0001161,97.2836,84.0139,87.1330,273.0046,0,U,67553,999,2854,.56376E-3,.18184E-3,0
STARLINK-36395,2026-014Y,2026-07-16T18:12:00.811008,15.33458237,.00024,97.2836,86.9590,113.6898,246.4596,0,U,67554,999,2874,.3304E-3,.10611E-3,0
STARLINK-36559,2026-014Z,2026-07-16T14:56:51.914112,15.33451629,.0001781,97.2847,83.9394,93.2652,266.8794,0,U,67555,999,2853,.46772E-3,.15058E-3,0
STARLINK-36426,2026-014AA,2026-07-16T15:43:50.752992,15.33459054,.0002043,97.2851,84.0470,87.7509,272.3967,0,U,67560,999,2854,.37963E-3,.12206E-3,0
STARLINK-36621,2026-016A,2026-07-16T15:31:35.743008,15.33433715,.0000765,97.2843,257.1767,267.4917,92.6238,0,U,67561,999,2662,.3775E-3,.12127E-3,0
STARLINK-36398,2026-016B,2026-07-16T15:43:20.393760,15.33474647,.0001063,97.2827,257.3170,135.6961,224.4367,0,U,67562,999,2663,.95135E-3,.30792E-3,0
STARLINK-36403,2026-016C,2026-07-16T16:10:46.075296,15.33438371,.0000841,97.2848,257.2923,134.4427,225.6884,0,U,67563,999,2663,.29407E-3,.9428E-4,0
STARLINK-36593,2026-016D,2026-07-16T14:44:37.658400,15.33445408,.0000773,97.2842,257.2188,105.4088,254.7240,0,U,67564,999,2662,.27712E-3,.8882E-4,0
STARLINK-35725,2026-016E,2026-07-16T15:12:01.699200,15.33457942,.0001189,97.2864,257.1977,285.6860,74.4251,0,U,67565,999,2662,.44998E-3,.14486E-3,0
STARLINK-36394,2026-016F,2026-07-16T15:15:56.628576,15.33454711,.0000877,97.2841,257.1916,243.9355,116.1797,0,U,67566,999,2662,.29176E-3,.9359E-4,0
